IRIDIUM 171             
1 43929U 19002H   25331.73961509  .00000348  00000+0  11723-3 0  9994
2 43929  86.3972  78.0718 0002181 103.7221 256.4218 14.34219903360084
IRIDIUM 170             
1 43930U 19002J   25332.32059824  .00001282  00000+0  19935-3 0  9991
2 43930  86.6088  77.5451 0002299  89.7183 270.4298 14.72250652369705
IRIDIUM 167             
1 43931U 19002K   25331.73327511  .00000353  00000+0  11883-3 0  9999
2 43931  86.3963  77.8110 0002026 109.5670 250.5744 14.34221417360082
IRIDIUM 181             
1 56726U 23068S   25332.53654172  .00000156  00000+0  40455-4 0  9996
2 56726  86.4502 140.6575 0002661  93.1743 266.9762 14.43310255133499
IRIDIUM 177             
1 56727U 23068T   25332.34311950  .00001834  00000+0  23778-3 0  9992
2 56727  86.1973  64.1663 0002287  87.8098 272.3385 14.80237692136651
IRIDIUM 178             
1 56729U 23068V   25331.79129098  .00000689  00000+0  87200-4 0  9990
2 56729  86.6528 109.5440 0002005  98.2826 261.8623 14.80228491136570
IRIDIUM 179             
1 56730U 23068W   25332.39432426  .00001553  00000+0  20094-3 0  9999
2 56730  86.6764 117.6717 0002423 101.9708 258.1786 14.80240053136663
